NORAD_CAT_ID,OBJECT_NAME,OBJECT_TYPE,EPOCH,MEAN_MOTION,ECCENTRICITY,INCLINATION,RA_OF_ASC_NODE,ARG_OF_PERICENTER,MEAN_ANOMALY,BSTAR,MEAN_MOTION_DOT,MEAN_MOTION_DDOT,TLE_LINE0,TLE_LINE1,TLE_LINE2,SEMIMAJOR_AXIS,PERIOD,APOGEE,PERIGEE,DECAYED
51791.0,STARLINK-3602,PAYLOAD,2023-11-03 20:06:19,15.08839563,0.0001657,53.2173,235.6824,96.2573,263.8608,2.3054e-05,7.9e-07,0.0,0 STARLINK-3602,1 51791U 22017Z   23307.83772295  .00000079  00000-0  23054-4 0  9997,2 51791  53.2173 235.6824 0001657  96.2573 263.8608 15.08839563 94562,6917.882,95.438,540.893,538.6,0.0
51791.0,STARLINK-3602,PAYLOAD,2023-11-04 04:03:14,15.08853766,0.0001614,53.217,234.1912,92.1725,267.9452,0.0003709,5.622e-05,0.0,0 STARLINK-3602,1 51791U 22017Z   23308.16891621  .00005622  00000-0  37090-3 0  9992,2 51791  53.2170 234.1912 0001614  92.1725 267.9452 15.08853766 94617,6917.838,95.437,540.82,538.587,0.0
51791.0,STARLINK-3602,PAYLOAD,2023-11-04 12:00:10,15.08841731,0.0002,53.2165,232.707,92.1441,267.978,9.4892e-05,1.222e-05,0.0,0 STARLINK-3602,1 51791U 22017Z   23308.50012262  .00001222  00000-0  94892-4 0  9992,2 51791  53.2165 232.7070 0002000  92.1441 267.9780 15.08841731 94663,6917.875,95.437,541.124,538.357,0.0
51791.0,STARLINK-3602,PAYLOAD,2023-11-05 11:50:57,15.08851899,0.0001593,53.2168,228.2467,84.5023,275.6151,0.00029368,4.39e-05,0.0,0 STARLINK-3602,1 51791U 22017Z   23309.49371785  .00004390  00000-0  29368-3 0  9993,2 51791  53.2168 228.2467 0001593  84.5023 275.6151 15.08851899 94814,6917.844,95.437,540.811,538.607,0.0
51791.0,STARLINK-3602,PAYLOAD,2023-11-06 03:44:46,15.08905915,0.0001609,53.2161,225.2714,97.6677,262.4498,0.0013369,0.00021091,0.0,0 STARLINK-3602,1 51791U 22017Z   23310.15609231  .00021091  00000-0  13369-2 0  9998,2 51791  53.2161 225.2714 0001609  97.6677 262.4498 15.08905915 94915,6917.679,95.433,540.657,538.431,0.0
51791.0,STARLINK-3602,PAYLOAD,2023-11-07 02:00:11,15.08804548,0.0001171,53.2159,221.1076,84.478,275.6345,-0.0015741,-0.00025228,0.0,0 STARLINK-3602,1 51791U 22017Z   23311.08346328 -.00025228  00000-0 -15741-2 0  9990,2 51791  53.2159 221.1076 0001171  84.4780 275.6345 15.08804548 95054,6917.989,95.44,540.664,539.044,0.0
51791.0,STARLINK-3602,PAYLOAD,2023-11-07 11:32:31,15.08805526,0.0001314,53.2162,219.3233,89.2179,270.8963,-0.00074006,-0.00012035,0.0,0 STARLINK-3602,1 51791U 22017Z   23311.48091541 -.00012035  00000-0 -74006-3 0  9990,2 51791  53.2162 219.3233 0001314  89.2179 270.8963 15.08805526 95113,6917.986,95.44,540.76,538.942,0.0
51791.0,STARLINK-3602,PAYLOAD,2023-11-08 03:26:23,15.08824363,0.000129,53.2166,216.3495,94.8328,265.2811,0.0012753,0.00020058,0.0,0 STARLINK-3602,1 51791U 22017Z   23312.14333131  .00020058  00000-0  12753-2 0  9990,2 51791  53.2166 216.3495 0001290  94.8328 265.2811 15.08824363 95216,6917.928,95.439,540.686,538.901,0.0
51791.0,STARLINK-3602,PAYLOAD,2023-11-08 22:31:01,15.08839453,0.0001064,53.2163,212.7863,71.9533,288.1575,0.00076953,0.0001198,0.0,0 STARLINK-3602,1 51791U 22017Z   23312.93821450  .00011980  00000-0  76953-3 0  9990,2 51791  53.2163 212.7863 0001064  71.9533 288.1575 15.08839453 95335,6917.882,95.438,540.483,539.011,0.0
51791.0,STARLINK-3602,PAYLOAD,2023-11-09 00:06:24,15.08846708,0.0001346,53.2171,212.4842,87.3489,272.7657,0.00075412,0.00011736,0.0,0 STARLINK-3602,1 51791U 22017Z   23313.00445252  .00011736  00000-0  75412-3 0  9999,2 51791  53.2171 212.4842 0001346  87.3489 272.7657 15.08846708 95344,6917.86,95.437,540.656,538.794,0.0
51791.0,STARLINK-3602,PAYLOAD,2023-11-09 22:21:48,15.08851014,0.0001589,53.2174,208.3296,125.8826,234.2313,0.0001882,2.709e-05,0.0,0 STARLINK-3602,1 51791U 22017Z   23313.93180890  .00002709  00000-0  18820-3 0  9995,2 51791  53.2174 208.3296 0001589 125.8826 234.2313 15.08851014 95489,6917.847,95.437,540.811,538.612,0.0
51791.0,STARLINK-3602,PAYLOAD,2023-11-10 09:29:30,15.08847356,0.000124,53.2165,206.2407,92.1158,267.9976,0.00030063,4.501e-05,0.0,0 STARLINK-3602,1 51791U 22017Z   23314.39548934  .00004501  00000-0  30063-3 0  9998,2 51791  53.2165 206.2407 0001240  92.1158 267.9976 15.08847356 95558,6917.858,95.437,540.581,538.865,0.0
51791.0,STARLINK-3602,PAYLOAD,2023-11-10 23:47:58,15.08841017,0.0001473,53.2166,203.5681,105.1208,254.9947,7.1757e-05,8.54e-06,0.0,0 STARLINK-3602,1 51791U 22017Z   23314.99165049  .00000854  00000-0  71757-4 0  9999,2 51791  53.2166 203.5681 0001473 105.1208 254.9947 15.08841017 95644,6917.877,95.437,540.761,538.723,0.0
51791.0,STARLINK-3602,PAYLOAD,2023-11-11 09:20:16,15.0885673,0.0001293,53.2164,201.777,83.8782,276.2357,0.00044848,6.86e-05,0.0,0 STARLINK-3602,1 51791U 22017Z   23315.38908443  .00006860  00000-0  44848-3 0  9999,2 51791  53.2164 201.7770 0001293  83.8782 276.2357 15.08856730 95707,6917.829,95.436,540.589,538.8,0.0
51791.0,STARLINK-3602,PAYLOAD,2023-11-11 22:03:21,15.08858147,0.0001365,53.2167,199.4002,95.7055,264.4093,0.00034125,5.15e-05,0.0,0 STARLINK-3602,1 51791U 22017Z   23315.91899998  .00005150  00000-0  34125-3 0  9990,2 51791  53.2167 199.4002 0001365  95.7055 264.4093 15.08858147 95784,6917.825,95.436,540.634,538.746,0.0
51791.0,STARLINK-3602,PAYLOAD,2023-11-12 09:11:03,15.08836703,0.0001597,53.2157,197.3192,93.7914,266.3261,-0.00021132,-3.649e-05,0.0,0 STARLINK-3602,1 51791U 22017Z   23316.38268321 -.00003649  00000-0 -21132-3 0  9999,2 51791  53.2157 197.3192 0001597  93.7914 266.3261 15.08836703 95859,6917.89,95.438,540.86,538.651,0.0
51791.0,STARLINK-3602,PAYLOAD,2023-11-12 21:54:09,15.08833175,0.0001444,53.2161,194.9424,100.8464,259.2691,-0.00019584,-3.403e-05,0.0,0 STARLINK-3602,1 51791U 22017Z   23316.91260747 -.00003403  00000-0 -19584-3 0  9998,2 51791  53.2161 194.9424 0001444 100.8464 259.2691 15.08833175 95933,6917.901,95.438,540.765,538.767,0.0
51791.0,STARLINK-3602,PAYLOAD,2023-11-12 23:29:32,15.08834746,0.0001489,53.2164,194.6446,101.0059,259.11,-0.00016635,-2.934e-05,0.0,0 STARLINK-3602,1 51791U 22017Z   23316.97884819 -.00002934  00000-0 -16635-3 0  9998,2 51791  53.2164 194.6446 0001489 101.0059 259.1100 15.08834746 95949,6917.896,95.438,540.792,538.731,0.0
51791.0,STARLINK-3602,PAYLOAD,2023-11-13 21:44:56,15.08839917,0.0001366,53.2162,190.4821,95.3907,264.7241,0.00014242,1.979e-05,0.0,0 STARLINK-3602,1 51791U 22017Z   23317.90620976  .00001979  00000-0  14242-3 0  9992,2 51791  53.2162 190.4821 0001366  95.3907 264.7241 15.08839917 96088,6917.881,95.438,540.691,538.801,0.0
51791.0,STARLINK-3602,PAYLOAD,2023-11-14 00:55:42,15.0884046,0.0001436,53.2159,189.887,104.4293,255.6859,0.00040628,6.184e-05,0.0,0 STARLINK-3602,1 51791U 22017Z   23318.03869156  .00006184  00000-0  40628-3 0  9992,2 51791  53.2159 189.8870 0001436 104.4293 255.6859 15.08840460 96100,6917.879,95.438,540.737,538.751,0.0
51791.0,STARLINK-3602,PAYLOAD,2023-11-14 08:52:38,15.0883446,0.0001347,53.2159,188.3968,94.2418,265.8728,0.00024272,3.577e-05,0.0,0 STARLINK-3602,1 51791U 22017Z   23318.36989477  .00003577  00000-0  24272-3 0  9997,2 51791  53.2159 188.3968 0001347  94.2418 265.8728 15.08834460 96154,6917.897,95.438,540.694,538.83,0.0
51791.0,STARLINK-3602,PAYLOAD,2023-11-14 21:35:44,15.08837665,0.0001359,53.2156,186.0186,92.0958,268.0189,0.00025717,3.807e-05,0.0,0 STARLINK-3602,1 51791U 22017Z   23318.89981685  .00003807  00000-0  25717-3 0  9999,2 51791  53.2156 186.0186 0001359  92.0958 268.0189 15.08837665 96231,6917.888,95.438,540.693,538.812,0.0
51791.0,STARLINK-3602,PAYLOAD,2023-11-15 00:46:30,15.08837455,0.0001333,53.2158,185.4234,93.1566,266.9579,0.00022042,3.222e-05,0.0,0 STARLINK-3602,1 51791U 22017Z   23319.03229702  .00003222  00000-0  22042-3 0  9990,2 51791  53.2158 185.4234 0001333  93.1566 266.9579 15.08837455 96258,6917.888,95.438,540.675,538.831,0.0
51791.0,STARLINK-3602,PAYLOAD,2023-11-15 18:15:44,15.08842714,0.0001315,53.2158,182.152,96.4074,263.7068,0.00024226,3.57e-05,0.0,0 STARLINK-3602,1 51791U 22017Z   23319.76093716  .00003570  00000-0  24226-3 0  9996,2 51791  53.2158 182.1520 0001315  96.4074 263.7068 15.08842714 96364,6917.872,95.437,540.647,538.827,0.0
51791.0,STARLINK-3602,PAYLOAD,2023-11-15 21:26:31,15.08846161,0.0001272,53.2159,181.5568,99.7473,260.3663,0.00022125,3.236e-05,0.0,0 STARLINK-3602,1 51791U 22017Z   23319.89341550  .00003236  00000-0  22125-3 0  9997,2 51791  53.2159 181.5568 0001272  99.7473 260.3663 15.08846161 96387,6917.862,95.437,540.607,538.847,0.0
51791.0,STARLINK-3602,PAYLOAD,2023-11-16 00:37:17,15.08846909,0.0001337,53.2159,180.9617,97.2552,262.8592,0.00031971,4.805e-05,0.0,0 STARLINK-3602,1 51791U 22017Z   23320.02589554  .00004805  00000-0  31971-3 0  9994,2 51791  53.2159 180.9617 0001337  97.2552 262.8592 15.08846909 96409,6917.859,95.437,540.649,538.799,0.0
51791.0,STARLINK-3602,PAYLOAD,2023-11-16 21:17:17,15.08848278,0.0001388,53.2142,177.0981,88.8599,271.2552,0.00022728,3.332e-05,0.0,0 STARLINK-3602,1 51791U 22017Z   23320.88701308  .00003332  00000-0  22728-3 0  9995,2 51791  53.2142 177.0981 0001388  88.8599 271.2552 15.08848278 96530,6917.855,95.437,540.68,538.76,0.0
51791.0,STARLINK-3602,PAYLOAD,2023-11-17 14:46:32,15.08843637,0.0001292,53.2151,173.8268,87.9216,272.1924,2.4158e-05,9.7e-07,0.0,0 STARLINK-3602,1 51791U 22017Z   23321.61565238  .00000097  00000-0  24158-4 0  9992,2 51791  53.2151 173.8268 0001292  87.9216 272.1924 15.08843637 96641,6917.869,95.437,540.628,538.84,0.0
51791.0,STARLINK-3602,PAYLOAD,2023-11-17 21:08:04,15.08861743,0.0001954,53.2152,172.6369,86.8374,273.2841,0.00028646,4.277e-05,0.0,0 STARLINK-3602,1 51791U 22017Z   23321.88060328  .00004277  00000-0  28646-3 0  9990,2 51791  53.2152 172.6369 0001954  86.8374 273.2841 15.08861743 96681,6917.814,95.436,541.031,538.327,0.0
51791.0,STARLINK-3602,PAYLOAD,2023-11-18 00:18:50,15.0886039,0.0001417,53.2149,172.0432,79.3486,280.7665,0.0002538,3.756e-05,0.0,0 STARLINK-3602,1 51791U 22017Z   23322.01308226  .00003756  00000-0  25380-3 0  9991,2 51791  53.2149 172.0432 0001417  79.3486 280.7665 15.08860390 96704,6917.818,95.436,540.663,538.703,0.0
